{
  "norad_id": 57712,
  "name": "STARLINK-30348",
  "history": [
    {
      "epoch": "2026-03-28T03:25:41.355264Z",
      "apogee_km": 484.04180871702283,
      "perigee_km": 481.92487864618397,
      "latitude_deg": -2.0851728225891024e-05,
      "longitude_deg": 136.79353924020745,
      "height_km": 482.9353887736823,
      "semi_major_axis_km": 6861.120343681603,
      "eccentricity": 0.00015427,
      "inclination_deg": 43.0005,
      "raan_deg": 13.7834,
      "arg_perigee_deg": 260.4717,
      "mean_anomaly_deg": 99.596,
      "mean_motion_rev_day": 15.27601959
    },
    {
      "epoch": "2026-03-29T01:23:52.336896Z",
      "apogee_km": 483.5161882219545,
      "perigee_km": 482.29766682042555,
      "latitude_deg": -7.180457400349169e-06,
      "longitude_deg": 161.17433249323557,
      "height_km": 482.8100188708163,
      "semi_major_axis_km": 6861.043927521189,
      "eccentricity": 8.88e-05,
      "inclination_deg": 42.9994,
      "raan_deg": 8.6122,
      "arg_perigee_deg": 257.9745,
      "mean_anomaly_deg": 102.1007,
      "mean_motion_rev_day": 15.2762748
    },
    {
      "epoch": "2026-03-30T02:30:22.574016Z",
      "apogee_km": 484.2487769726349,
      "perigee_km": 482.05865297641503,
      "latitude_deg": 2.1094210434346304e-05,
      "longitude_deg": 137.60880993023758,
      "height_km": 483.0897782627879,
      "semi_major_axis_km": 6861.290714974525,
      "eccentricity": 0.0001596,
      "inclination_deg": 43.0018,
      "raan_deg": 2.7038,
      "arg_perigee_deg": 261.6494,
      "mean_anomaly_deg": 98.4177,
      "mean_motion_rev_day": 15.27545062
    },
    {
      "epoch": "2026-03-30T02:30:22.574880Z",
      "apogee_km": 484.24850252100623,
      "perigee_km": 482.0589274280446,
      "latitude_deg": 1.798327652906423e-05,
      "longitude_deg": 137.6088030029536,
      "height_km": 483.0897384094092,
      "semi_major_axis_km": 6861.290714974525,
      "eccentricity": 0.00015956,
      "inclination_deg": 43.0018,
      "raan_deg": 2.7038,
      "arg_perigee_deg": 261.6494,
      "mean_anomaly_deg": 98.4177,
      "mean_motion_rev_day": 15.27545062
    },
    {
      "epoch": "2026-03-31T02:02:44.098368Z",
      "apogee_km": 483.9230996683809,
      "perigee_km": 482.1345309636454,
      "latitude_deg": -1.768771669073047e-05,
      "longitude_deg": 138.01565972244308,
      "height_km": 482.80808385050227,
      "semi_major_axis_km": 6861.165815316013,
      "eccentricity": 0.00013034,
      "inclination_deg": 43.0011,
      "raan_deg": 357.1671,
      "arg_perigee_deg": 269.8383,
      "mean_anomaly_deg": 90.2319,
      "mean_motion_rev_day": 15.27586773
    },
    {
      "epoch": "2026-04-01T14:08:20.565888Z",
      "apogee_km": 483.9389289191986,
      "perigee_km": 482.1083712577565,
      "latitude_deg": 4.6490454559829234e-05,
      "longitude_deg": -53.36252368868715,
      "height_km": 482.533720683387,
      "semi_major_axis_km": 6861.160650088477,
      "eccentricity": 0.0001334,
      "inclination_deg": 43.0007,
      "raan_deg": 348.6731,
      "arg_perigee_deg": 286.9369,
      "mean_anomaly_deg": 73.1337,
      "mean_motion_rev_day": 15.27588498
    },
    {
      "epoch": "2026-04-02T16:48:59.094144Z",
      "apogee_km": 483.7619398347324,
      "perigee_km": 482.109793488441,
      "latitude_deg": 1.7140046123662613e-05,
      "longitude_deg": -100.89708900372909,
      "height_km": 482.74814205816284,
      "semi_major_axis_km": 6861.072866661587,
      "eccentricity": 0.0001204,
      "inclination_deg": 42.9982,
      "raan_deg": 342.3947,
      "arg_perigee_deg": 267.5057,
      "mean_anomaly_deg": 92.5657,
      "mean_motion_rev_day": 15.27617815
    },
    {
      "epoch": "2026-04-02T23:05:36.395520Z",
      "apogee_km": 483.88032323486823,
      "perigee_km": 481.95593449232547,
      "latitude_deg": 1.7868075051313816e-05,
      "longitude_deg": 163.2122011685174,
      "height_km": 482.7924166658379,
      "semi_major_axis_km": 6861.055128863597,
      "eccentricity": 0.00014024,
      "inclination_deg": 42.9988,
      "raan_deg": 340.9172,
      "arg_perigee_deg": 264.1696,
      "mean_anomaly_deg": 95.8996,
      "mean_motion_rev_day": 15.27623739
    },
    {
      "epoch": "2026-04-03T16:21:20.050848Z",
      "apogee_km": 483.8972117623043,
      "perigee_km": 482.1078265757051,
      "latitude_deg": 3.935078432616288e-05,
      "longitude_deg": -100.48780349303672,
      "height_km": 482.5669302267003,
      "semi_major_axis_km": 6861.139519169004,
      "eccentricity": 0.0001304,
      "inclination_deg": 43.0015,
      "raan_deg": 336.858,
      "arg_perigee_deg": 283.7312,
      "mean_anomaly_deg": 76.3395,
      "mean_motion_rev_day": 15.27595555
    },
    {
      "epoch": "2026-04-04T01:46:16.157568Z",
      "apogee_km": 484.20886341763344,
      "perigee_km": 481.71279602718096,
      "latitude_deg": -1.2546299424912077e-05,
      "longitude_deg": 115.67477872691144,
      "height_km": 482.5649458888263,
      "semi_major_axis_km": 6861.0978297224065,
      "eccentricity": 0.0001819,
      "inclination_deg": 43.0022,
      "raan_deg": 334.6411,
      "arg_perigee_deg": 277.976,
      "mean_anomaly_deg": 82.0885,
      "mean_motion_rev_day": 15.27609478
    },
    {
      "epoch": "2026-04-04T23:44:27.411360Z",
      "apogee_km": 484.11759084201367,
      "perigee_km": 481.89471768289604,
      "latitude_deg": 2.1917000031123352e-05,
      "longitude_deg": 140.05535648318133,
      "height_km": 482.68400523312414,
      "semi_major_axis_km": 6861.143154262454,
      "eccentricity": 0.00016199,
      "inclination_deg": 42.9993,
      "raan_deg": 329.4708,
      "arg_perigee_deg": 275.1081,
      "mean_anomaly_deg": 84.9586,
      "mean_motion_rev_day": 15.27594341
    },
    {
      "epoch": "2026-04-06T00:50:58.588512Z",
      "apogee_km": 484.2497017679798,
      "perigee_km": 481.80877326732025,
      "latitude_deg": 1.94437193961193e-05,
      "longitude_deg": 116.48707111600136,
      "height_km": 482.92068434831833,
      "semi_major_axis_km": 6861.166237517649,
      "eccentricity": 0.00017788,
      "inclination_deg": 43.0024,
      "raan_deg": 323.5636,
      "arg_perigee_deg": 264.631,
      "mean_anomaly_deg": 95.4339,
      "mean_motion_rev_day": 15.27586632
    },
    {
      "epoch": "2026-04-07T00:23:19.547808Z",
      "apogee_km": 483.99625036217276,
      "perigee_km": 482.0100875060689,
      "latitude_deg": 1.5087533273128845e-06,
      "longitude_deg": 116.8942003902462,
      "height_km": 482.8270319414607,
      "semi_major_axis_km": 6861.14016893412,
      "eccentricity": 0.00014474,
      "inclination_deg": 43.0027,
      "raan_deg": 318.0248,
      "arg_perigee_deg": 267.2971,
      "mean_anomaly_deg": 92.7715,
      "mean_motion_rev_day": 15.27595338
    },
    {
      "epoch": "2026-04-08T14:03:04.712544Z",
      "apogee_km": 483.33563245274763,
      "perigee_km": 482.6720229118946,
      "latitude_deg": 2.500877914913099e-06,
      "longitude_deg": -98.45223543716794,
      "height_km": 482.5998625287255,
      "semi_major_axis_km": 6861.14082768232,
      "eccentricity": 4.836e-05,
      "inclination_deg": 42.9991,
      "raan_deg": 309.1633,
      "arg_perigee_deg": 302.7915,
      "mean_anomaly_deg": 57.289,
      "mean_motion_rev_day": 15.27595118
    },
    {
      "epoch": "2026-04-08T23:28:00.687072Z",
      "apogee_km": 484.25903322794875,
      "perigee_km": 481.70230633947995,
      "latitude_deg": 1.9357983477083322e-05,
      "longitude_deg": 117.71217128948443,
      "height_km": 482.6647045201595,
      "semi_major_axis_km": 6861.117669783714,
      "eccentricity": 0.00018632,
      "inclination_deg": 43.0042,
      "raan_deg": 306.9476,
      "arg_perigee_deg": 274.1948,
      "mean_anomaly_deg": 85.8691,
      "mean_motion_rev_day": 15.27602852
    },
    {
      "epoch": "2026-04-11T18:56:44.857248Z",
      "apogee_km": 484.55499876711383,
      "perigee_km": 481.5209871852194,
      "latitude_deg": 4.526683357856103e-07,
      "longitude_deg": 166.88144070392465,
      "height_km": 482.44374159387183,
      "semi_major_axis_km": 6861.174992976166,
      "eccentricity": 0.0002211,
      "inclination_deg": 43.0053,
      "raan_deg": 291.0722,
      "arg_perigee_deg": 284.2016,
      "mean_anomaly_deg": 75.859,
      "mean_motion_rev_day": 15.27583708
    },
    {
      "epoch": "2026-04-13T05:28:11.916480Z",
      "apogee_km": 484.3765329711432,
      "perigee_km": 481.81550913370575,
      "latitude_deg": -1.1524269902493115e-05,
      "longitude_deg": -0.5260773901458717,
      "height_km": 483.06287056655043,
      "semi_major_axis_km": 6861.233021052424,
      "eccentricity": 0.00018663,
      "inclination_deg": 43.0032,
      "raan_deg": 282.9453,
      "arg_perigee_deg": 261.4915,
      "mean_anomaly_deg": 98.5725,
      "mean_motion_rev_day": 15.27564329
    },
    {
      "epoch": "2026-04-14T20:42:07.115904Z",
      "apogee_km": 484.27049023131804,
      "perigee_km": 481.70854558953033,
      "latitude_deg": 3.9406270956758334e-05,
      "longitude_deg": 120.1484800940007,
      "height_km": 483.00347313968444,
      "semi_major_axis_km": 6861.126517910424,
      "eccentricity": 0.0001867,
      "inclination_deg": 43.0023,
      "raan_deg": 273.711,
      "arg_perigee_deg": 259.3521,
      "mean_anomaly_deg": 100.7121,
      "mean_motion_rev_day": 15.27599897
    },
    {
      "epoch": "2026-04-15T20:14:26.079360Z",
      "apogee_km": 484.7821992597883,
      "perigee_km": 481.07310770811546,
      "latitude_deg": 2.9544552181966527e-05,
      "longitude_deg": 120.56566108023537,
      "height_km": 482.8939592864588,
      "semi_major_axis_km": 6861.064653483952,
      "eccentricity": 0.0002703,
      "inclination_deg": 43.0042,
      "raan_deg": 268.1739,
      "arg_perigee_deg": 264.1751,
      "mean_anomaly_deg": 95.8793,
      "mean_motion_rev_day": 15.27620558
    }
  ]
}